{
  "type": "FeatureCollection",
  "features": [
    {
      "type": "Feature",
      "properties": {
        "norad_id": 66396,
        "name": "STARLINK-35669",
        "group": "last-30-days",
        "lat": -44.735838929136335,
        "lon": -113.08925211643917,
        "alt_km": 422.7274914111622,
        "timestamp": "2025-12-06T05:40:08.010162+00:00",
        "meta_object_name": "STARLINK-35669",
        "meta_object_id": "2025-257S",
        "meta_epoch": "2025-12-04T09:02:39.769152",
        "meta_mean_motion": 15.49365522,
        "meta_eccentricity": 0.0001327,
        "meta_inclination": 53.1591,
        "meta_ra_of_asc_node": 303.7835,
        "meta_arg_of_pericenter": 104.0612,
        "meta_mean_anomaly": 256.0545,
        "meta_ephemeris_type": 0,
        "meta_classification_type": "U",
        "meta_norad_cat_id": 66396,
        "meta_element_set_no": 999,
        "meta_rev_at_epoch": 508,
        "meta_bstar": 0.0021205,
        "meta_mean_motion_dot": 0.00119543,
        "meta_mean_motion_ddot": 0,
        "tle_line1": "1 66396U 25257S   25338.37684918  .00119543  00000+0  21205-2 0  9992",
        "tle_line2": "2 66396  53.1591 303.7835 0001327 104.0612 256.0545 15.49365522  5084"
      },
      "geometry": {
        "type": "Point",
        "coordinates": [
          -113.08925211643917,
          -44.735838929136335
        ]
      }
    },
    {
      "type": "Feature",
      "properties": {
        "norad_id": 66397,
        "name": "STARLINK-35510",
        "group": "last-30-days",
        "lat": -44.56619405158582,
        "lon": -112.71427391640931,
        "alt_km": 423.16088790220147,
        "timestamp": "2025-12-06T05:40:08.010174+00:00",
        "meta_object_name": "STARLINK-35510",
        "meta_object_id": "2025-257T",
        "meta_epoch": "2025-12-05T06:42:40.882176",
        "meta_mean_motion": 15.4930324,
        "meta_eccentricity": 0.00015769,
        "meta_inclination": 53.1591,
        "meta_ra_of_asc_node": 299.4635,
        "meta_arg_of_pericenter": 55.6954,
        "meta_mean_anomaly": 304.4204,
        "meta_ephemeris_type": 0,
        "meta_classification_type": "U",
        "meta_norad_cat_id": 66397,
        "meta_element_set_no": 999,
        "meta_rev_at_epoch": 522,
        "meta_bstar": 0.0021734523,
        "meta_mean_motion_dot": 0.00122316,
        "meta_mean_motion_ddot": 0,
        "tle_line1": "1 66397U 25257T   25339.27963984  .00122316  00000+0  21735-2 0  9996",
        "tle_line2": "2 66397  53.1591 299.4635 0001576  55.6954 304.4204 15.49303240  5225"
      },
      "geometry": {
        "type": "Point",
        "coordinates": [
          -112.71427391640931,
          -44.56619405158582
        ]
      }
    },
    {
      "type": "Feature",
      "properties": {
        "norad_id": 66398,
        "name": "STARLINK-35642",
        "group": "last-30-days",
        "lat": -44.36026154713702,
        "lon": -112.26706109713548,
        "alt_km": 429.4764728899554,
        "timestamp": "2025-12-06T05:40:08.010185+00:00",
        "meta_object_name": "STARLINK-35642",
        "meta_object_id": "2025-257U",
        "meta_epoch": "2025-12-05T05:08:48.805728",
        "meta_mean_motion": 15.49933402,
        "meta_eccentricity": 9.989e-05,
        "meta_inclination": 53.1594,
        "meta_ra_of_asc_node": 299.7669,
        "meta_arg_of_pericenter": 357.8183,
        "meta_mean_anomaly": 2.2822,
        "meta_ephemeris_type": 0,
        "meta_classification_type": "U",
        "meta_norad_cat_id": 66398,
        "meta_element_set_no": 999,
        "meta_rev_at_epoch": 521,
        "meta_bstar": -0.025665477,
        "meta_mean_motion_dot": -0.01317318,
        "meta_mean_motion_ddot": 0,
        "tle_line1": "1 66398U 25257U   25339.21445377 -.01317318  00000+0 -25665-1 0  9998",
        "tle_line2": "2 66398  53.1594 299.7669 0000998 357.8183   2.2822 15.49933402  5214"
      },
      "geometry": {
        "type": "Point",
        "coordinates": [
          -112.26706109713548,
          -44.36026154713702
        ]
      }
    },
    {
      "type": "Feature",
      "properties": {
        "norad_id": 66399,
        "name": "STARLINK-35657",
        "group": "last-30-days",
        "lat": -41.72790989577373,
        "lon": -107.08536622126843,
        "alt_km": 425.73960141165844,
        "timestamp": "2025-12-06T05:40:08.010197+00:00",
        "meta_object_name": "STARLINK-35657",
        "meta_object_id": "2025-257V",
        "meta_epoch": "2025-12-05T05:08:21.567264",
        "meta_mean_motion": 15.50012684,
        "meta_eccentricity": 9.654e-05,
        "meta_inclination": 53.1594,
        "meta_ra_of_asc_node": 299.7653,
        "meta_arg_of_pericenter": 53.0489,
        "meta_mean_anomaly": 307.0609,
        "meta_ephemeris_type": 0,
        "meta_classification_type": "U",
        "meta_norad_cat_id": 66399,
        "meta_element_set_no": 999,
        "meta_rev_at_epoch": 521,
        "meta_bstar": -0.013025319,
        "meta_mean_motion_dot": -0.00681635,
        "meta_mean_motion_ddot": 0,
        "tle_line1": "1 66399U 25257V   25339.21413851 -.00681635  00000+0 -13025-1 0  9993",
        "tle_line2": "2 66399  53.1594 299.7653 0000965  53.0489 307.0609 15.50012684  5217"
      },
      "geometry": {
        "type": "Point",
        "coordinates": [
          -107.08536622126843,
          -41.72790989577373
        ]
      }
    },
    {
      "type": "Feature",
      "properties": {
        "norad_id": 66400,
        "name": "STARLINK-35667",
        "group": "last-30-days",
        "lat": -40.20314352364588,
        "lon": -104.44800502389884,
        "alt_km": 423.47754261666796,
        "timestamp": "2025-12-06T05:40:08.010208+00:00",
        "meta_object_name": "STARLINK-35667",
        "meta_object_id": "2025-257W",
        "meta_epoch": "2025-12-05T05:07:48.019872",
        "meta_mean_motion": 15.49306176,
        "meta_eccentricity": 0.00010953,
        "meta_inclination": 53.1596,
        "meta_ra_of_asc_node": 299.762,
        "meta_arg_of_pericenter": 93.5643,
        "meta_mean_anomaly": 266.5491,
        "meta_ephemeris_type": 0,
        "meta_classification_type": "U",
        "meta_norad_cat_id": 66400,
        "meta_element_set_no": 999,
        "meta_rev_at_epoch": 521,
        "meta_bstar": 0.00092400776,
        "meta_mean_motion_dot": 0.00051274,
        "meta_mean_motion_ddot": 0,
        "tle_line1": "1 66400U 25257W   25339.21375023  .00051274  00000+0  92401-3 0  9999",
        "tle_line2": "2 66400  53.1596 299.7620 0001095  93.5643 266.5491 15.49306176  5210"
      },
      "geometry": {
        "type": "Point",
        "coordinates": [
          -104.44800502389884,
          -40.20314352364588
        ]
      }
    },
    {
      "type": "Feature",
      "properties": {
        "norad_id": 66401,
        "name": "STARLINK-35668",
        "group": "last-30-days",
        "lat": -38.10778268938474,
        "lon": -101.15264114284483,
        "alt_km": 426.5444581670581,
        "timestamp": "2025-12-06T05:40:08.010218+00:00",
        "meta_object_name": "STARLINK-35668",
        "meta_object_id": "2025-257X",
        "meta_epoch": "2025-12-05T05:06:53.192160",
        "meta_mean_motion": 15.50047442,
        "meta_eccentricity": 0.00018795,
        "meta_inclination": 53.1594,
        "meta_ra_of_asc_node": 299.758,
        "meta_arg_of_pericenter": 109.8667,
        "meta_mean_anomaly": 250.2545,
        "meta_ephemeris_type": 0,
        "meta_classification_type": "U",
        "meta_norad_cat_id": 66401,
        "meta_element_set_no": 999,
        "meta_rev_at_epoch": 521,
        "meta_bstar": -0.013107939,
        "meta_mean_motion_dot": -0.00686536,
        "meta_mean_motion_ddot": 0,
        "tle_line1": "1 66401U 25257X   25339.21311565 -.00686536  00000+0 -13108-1 0  9993",
        "tle_line2": "2 66401  53.1594 299.7580 0001879 109.8667 250.2545 15.50047442  5211"
      },
      "geometry": {
        "type": "Point",
        "coordinates": [
          -101.15264114284483,
          -38.10778268938474
        ]
      }
    },
    {
      "type": "Feature",
      "properties": {
        "norad_id": 66402,
        "name": "STARLINK-35644",
        "group": "last-30-days",
        "lat": -40.34038963605769,
        "lon": -104.67706584457994,
        "alt_km": 425.723500364089,
        "timestamp": "2025-12-06T05:40:08.010228+00:00",
        "meta_object_name": "STARLINK-35644",
        "meta_object_id": "2025-257Y",
        "meta_epoch": "2025-12-05T06:40:43.900032",
        "meta_mean_motion": 15.50041017,
        "meta_eccentricity": 9.514e-05,
        "meta_inclination": 53.1592,
        "meta_ra_of_asc_node": 299.4536,
        "meta_arg_of_pericenter": 148.2149,
        "meta_mean_anomaly": 211.8918,
        "meta_ephemeris_type": 0,
        "meta_classification_type": "U",
        "meta_norad_cat_id": 66402,
        "meta_element_set_no": 999,
        "meta_rev_at_epoch": 522,
        "meta_bstar": -0.013016523,
        "meta_mean_motion_dot": -0.00681842,
        "meta_mean_motion_ddot": 0,
        "tle_line1": "1 66402U 25257Y   25339.27828588 -.00681842  00000+0 -13017-1 0  9992",
        "tle_line2": "2 66402  53.1592 299.4536 0000951 148.2149 211.8918 15.50041017  5220"
      },
      "geometry": {
        "type": "Point",
        "coordinates": [
          -104.67706584457994,
          -40.34038963605769
        ]
      }
    }
  ]
}